start=new Date('2023-03-04T00:00:00.000Z').valueOf();
sats=[{"MEAN_ANOMALY":"230.2371","RA_OF_ASC_NODE":"332.7243","COUNTRY_CODE":"US","OBJECT_NAME":"STARLINK-1446","FILE":"3850400","TLE_LINE2":"2 45663  53.0568 332.7243 0001021 129.8708 230.2371 15.06428121152664","RCS_SIZE":"LARGE","REV_AT_EPOCH":"15266","OBJECT_TYPE":"PAYLOAD","TIME_SYSTEM":"UTC","CLASSIFICATION_TYPE":"U","MEAN_MOTION_DDOT":"0.0000000000000","INCLINATION":"53.0568","TLE_LINE1":"1 45663U 20035G   23062.90397219  .00027811  00000-0  18772-2 0  9993","DECAY_DATE":null,"ECCENTRICITY":"0.00010210","GP_ID":"227431031","EPOCH":"2023-03-03T21:41:43.197216","SEMIMAJOR_AXIS":"6925.262","NORAD_CAT_ID":"45663","PERIAPSIS":"546.420","LAUNCH_DATE":"2020-06-04","APOAPSIS":"547.834","PERIOD":"95.590","EPHEMERIS_TYPE":"0","REF_FRAME":"TEME","SITE":"AFETR","BSTAR":"0.00187720000000","MEAN_ELEMENT_THEORY":"SGP4","MEAN_MOTION_DOT":"0.00027811","CENTER_NAME":"EARTH","OBJECT_ID":"2020-035G","MEAN_MOTION":"15.06428121","ARG_OF_PERICENTER":"129.8708","ELEMENT_SET_NO":"999"},{"PERIAPSIS":"546.370","GP_ID":"227399291","EPOCH":"2023-03-03T04:58:33.726720","SEMIMAJOR_AXIS":"6925.186","NORAD_CAT_ID":"45665","EPHEMERIS_TYPE":"0","REF_FRAME":"TEME","LAUNCH_DATE":"2020-06-04","PERIOD":"95.589","APOAPSIS":"547.731","BSTAR":"0.00279620000000","MEAN_ELEMENT_THEORY":"SGP4","MEAN_MOTION_DOT":"0.00041675","CENTER_NAME":"EARTH","OBJECT_ID":"2020-035J","SITE":"AFETR","ARG_OF_PERICENTER":"99.4190","ELEMENT_SET_NO":"999","MEAN_MOTION":"15.06453175","MEAN_ANOMALY":"260.6910","RA_OF_ASC_NODE":"335.8597","COUNTRY_CODE":"US","REV_AT_EPOCH":"15255","OBJECT_NAME":"STARLINK-1448","FILE":"3850163","RCS_SIZE":"LARGE","TLE_LINE2":"2 45665  53.0534 335.8597 0000983  99.4190 260.6910 15.06453175152559","CLASSIFICATION_TYPE":"U","MEAN_MOTION_DDOT":"0.0000000000000","OBJECT_TYPE":"PAYLOAD","TIME_SYSTEM":"UTC","TLE_LINE1":"1 45665U 20035J   23062.20733480  .00041675  00000-0  27962-2 0  9997","INCLINATION":"53.0534","DECAY_DATE":null,"ECCENTRICITY":"0.00009830"},{"MEAN_MOTION":"15.06399376","ARG_OF_PERICENTER":"118.5628","ELEMENT_SET_NO":"999","SITE":"AFETR","MEAN_ELEMENT_THEORY":"SGP4","BSTAR":"0.00039093000000","MEAN_MOTION_DOT":"0.00005546","CENTER_NAME":"EARTH","OBJECT_ID":"2020-035K","LAUNCH_DATE":"2020-06-04","PERIOD":"95.592","APOAPSIS":"547.976","EPHEMERIS_TYPE":"0","REF_FRAME":"TEME","GP_ID":"227399526","EPOCH":"2023-03-03T03:28:21.014688","SEMIMAJOR_AXIS":"6925.350","NORAD_CAT_ID":"45666","PERIAPSIS":"546.455","TLE_LINE1":"1 45666U 20035K   23062.14468767  .00005546  00000-0  39093-3 0  9990","INCLINATION":"53.0547","DECAY_DATE":null,"ECCENTRICITY":"0.00010980","OBJECT_TYPE":"PAYLOAD","TIME_SYSTEM":"UTC","CLASSIFICATION_TYPE":"U","MEAN_MOTION_DDOT":"0.0000000000000","OBJECT_NAME":"STARLINK-1449","FILE":"3850163","RCS_SIZE":"LARGE","TLE_LINE2":"2 45666  53.0547 336.1081 0001098 118.5628 241.5471 15.06399376152544","REV_AT_EPOCH":"15254","MEAN_ANOMALY":"241.5471","RA_OF_ASC_NODE":"336.1081","COUNTRY_CODE":"US"},{"OBJECT_ID":"2020-035L","CENTER_NAME":"EARTH","MEAN_MOTION_DOT":"0.00025493","BSTAR":"0.00172250000000","MEAN_ELEMENT_THEORY":"SGP4","SITE":"AFETR","ELEMENT_SET_NO":"999","ARG_OF_PERICENTER":"99.6899","MEAN_MOTION":"15.06436269","PERIAPSIS":"546.147","NORAD_CAT_ID":"45667","SEMIMAJOR_AXIS":"6925.237","EPOCH":"2023-03-03T17:52:08.383872","GP_ID":"227430781","REF_FRAME":"TEME","EPHEMERIS_TYPE":"0","PERIOD":"95.590","APOAPSIS":"548.058","LAUNCH_DATE":"2020-06-04","MEAN_MOTION_DDOT":"0.0000000000000","CLASSIFICATION_TYPE":"U","TIME_SYSTEM":"UTC","OBJECT_TYPE":"PAYLOAD","ECCENTRICITY":"0.00013800","DECAY_DATE":null,"INCLINATION":"53.0546","TLE_LINE1":"1 45667U 20035L   23062.74454148  .00025493  00000-0  17225-2 0  9990","COUNTRY_CODE":"US","RA_OF_ASC_NODE":"333.4774","MEAN_ANOMALY":"260.4246","REV_AT_EPOCH":"15263","RCS_SIZE":"LARGE","TLE_LINE2":"2 45667  53.0546 333.4774 0001380  99.6899 260.4246 15.06436269152639","OBJECT_NAME":"STARLINK-1450","FILE":"3850400"},{"ELEMENT_SET_NO":"999","ARG_OF_PERICENTER":"117.4463","MEAN_MOTION":"15.06419617","CENTER_NAME":"EARTH","OBJECT_ID":"2020-035M","MEAN_ELEMENT_THEORY":"SGP4","BSTAR":"0.00070081000000","MEAN_MOTION_DOT":"0.00010178","SITE":"AFETR","REF_FRAME":"TEME","EPHEMERIS_TYPE":"0","PERIOD":"95.591","APOAPSIS":"547.861","LAUNCH_DATE":"2020-06-04","PERIAPSIS":"546.446","SEMIMAJOR_AXIS":"6925.288","NORAD_CAT_ID":"45668","GP_ID":"227399048","EPOCH":"2023-03-03T04:20:03.221376","ECCENTRICITY":"0.00010210","TLE_LINE1":"1 45668U 20035M   23062.18059284  .00010178  00000-0  70081-3 0  9995","INCLINATION":"53.0541","DECAY_DATE":null,"CLASSIFICATION_TYPE":"U","MEAN_MOTION_DDOT":"0.0000000000000","OBJECT_TYPE":"PAYLOAD","TIME_SYSTEM":"UTC","REV_AT_EPOCH":"15256","RCS_SIZE":"LARGE","TLE_LINE2":"2 45668  53.0541 335.9738 0001021 117.4463 242.6630 15.06419617152569","OBJECT_NAME":"STARLINK-1451","FILE":"3850163","COUNTRY_CODE":"US","MEAN_ANOMALY":"242.6630","RA_OF_ASC_NODE":"335.9738"},{"SITE":"AFETR","CENTER_NAME":"EARTH","OBJECT_ID":"2020-035N","BSTAR":"0.00196350000000","MEAN_ELEMENT_THEORY":"SGP4","MEAN_MOTION_DOT":"0.00029123","MEAN_MOTION":"15.06446298","ELEMENT_SET_NO":"999","ARG_OF_PERICENTER":"128.2731","SEMIMAJOR_AXIS":"6925.207","NORAD_CAT_ID":"45669","GP_ID":"227430279","EPOCH":"2023-03-03T21:25:47.857728","PERIAPSIS":"546.031","APOAPSIS":"548.113","PERIOD":"95.589","LAUNCH_DATE":"2020-06-04","REF_FRAME":"TEME","EPHEMERIS_TYPE":"0","OBJECT_TYPE":"PAYLOAD","TIME_SYSTEM":"UTC","CLASSIFICATION_TYPE":"U","MEAN_MOTION_DDOT":"0.0000000000000","ECCENTRICITY":"0.00015030","TLE_LINE1":"1 45669U 20035N   23062.89291502  .00029123  00000-0  19635-2 0  9992","INCLINATION":"53.0544","DECAY_DATE":null,"COUNTRY_CODE":"US","MEAN_ANOMALY":"231.8394","RA_OF_ASC_NODE":"332.7811","RCS_SIZE":"LARGE","TLE_LINE2":"2 45669  53.0544 332.7811 0001503 128.2731 231.8394 15.06446298152666","OBJECT_NAME":"STARLINK-1452","FILE":"3850400","REV_AT_EPOCH":"15266"},{"FILE":"3850400","OBJECT_NAME":"STARLINK-1453","TLE_LINE2":"2 45670  53.0538 302.8195 0001161 118.3226 241.7881 15.06429778152972","RCS_SIZE":"LARGE","REV_AT_EPOCH":"15297","MEAN_ANOMALY":"241.7881","RA_OF_ASC_NODE":"302.8195","COUNTRY_CODE":"US","TLE_LINE1":"1 45670U 20035P   23062.88462869  .00020365  00000-0  13810-2 0  9997","INCLINATION":"53.0538","DECAY_DATE":null,"ECCENTRICITY":"0.00011610","OBJECT_TYPE":"PAYLOAD","TIME_SYSTEM":"UTC","CLASSIFICATION_TYPE":"U","MEAN_MOTION_DDOT":"0.0000000000000","LAUNCH_DATE":"2020-06-04","PERIOD":"95.590","APOAPSIS":"547.926","EPHEMERIS_TYPE":"0","REF_FRAME":"TEME","GP_ID":"227430529","EPOCH":"2023-03-03T21:13:51.918816","SEMIMAJOR_AXIS":"6925.257","NORAD_CAT_ID":"45670","PERIAPSIS":"546.318","MEAN_MOTION":"15.06429778","ARG_OF_PERICENTER":"118.3226","ELEMENT_SET_NO":"999","SITE":"AFETR","MEAN_ELEMENT_THEORY":"SGP4","BSTAR":"0.00138100000000","MEAN_MOTION_DOT":"0.00020365","CENTER_NAME":"EARTH","OBJECT_ID":"2020-035P"},{"APOAPSIS":"547.985","PERIOD":"95.590","LAUNCH_DATE":"2020-06-04","REF_FRAME":"TEME","EPHEMERIS_TYPE":"0","SEMIMAJOR_AXIS":"6925.252","NORAD_CAT_ID":"45671","GP_ID":"227431281","EPOCH":"2023-03-03T21:31:06.715200","PERIAPSIS":"546.249","MEAN_MOTION":"15.06431489","ELEMENT_SET_NO":"999","ARG_OF_PERICENTER":"87.7987","SITE":"AFETR","CENTER_NAME":"EARTH","OBJECT_ID":"2020-035Q","BSTAR":"0.00119760000000","MEAN_ELEMENT_THEORY":"SGP4","MEAN_MOTION_DOT":"0.00017617","RCS_SIZE":"LARGE","TLE_LINE2":"2 45671  53.0544 332.7619 0001254  87.7987 272.3145 15.06431489152659","OBJECT_NAME":"STARLINK-1454","FILE":"3850400","REV_AT_EPOCH":"15265","COUNTRY_CODE":"US","MEAN_ANOMALY":"272.3145","RA_OF_ASC_NODE":"332.7619","ECCENTRICITY":"0.00012540","TLE_LINE1":"1 45671U 20035Q   23062.89660550  .00017617  00000-0  11976-2 0  9993","INCLINATION":"53.0544","DECAY_DATE":null,"OBJECT_TYPE":"PAYLOAD","TIME_SYSTEM":"UTC","CLASSIFICATION_TYPE":"U","MEAN_MOTION_DDOT":"0.0000000000000"},{"APOAPSIS":"548.042","PERIOD":"95.590","LAUNCH_DATE":"2020-06-04","REF_FRAME":"TEME","EPHEMERIS_TYPE":"0","NORAD_CAT_ID":"45672","SEMIMAJOR_AXIS":"6925.269","EPOCH":"2023-03-03T21:45:43.097184","GP_ID":"227431032","PERIAPSIS":"546.226","MEAN_MOTION":"15.06426085","ELEMENT_SET_NO":"999","ARG_OF_PERICENTER":"149.2916","SITE":"AFETR","OBJECT_ID":"2020-035R","CENTER_NAME":"EARTH","MEAN_MOTION_DOT":"0.00020538","MEAN_ELEMENT_THEORY":"SGP4","BSTAR":"0.00139270000000","RCS_SIZE":"LARGE","TLE_LINE2":"2 45672  53.0524 302.7202 0001311 149.2916 210.8150 15.06426085153080","OBJECT_NAME":"STARLINK-1455","FILE":"3850400","REV_AT_EPOCH":"15308","COUNTRY_CODE":"US","RA_OF_ASC_NODE":"302.7202","MEAN_ANOMALY":"210.8150","ECCENTRICITY":"0.00013110","DECAY_DATE":null,"TLE_LINE1":"1 45672U 20035R   23062.90674881  .00020538  00000-0  13927-2 0  9992","INCLINATION":"53.0524","TIME_SYSTEM":"UTC","OBJECT_TYPE":"PAYLOAD","MEAN_MOTION_DDOT":"0.0000000000000","CLASSIFICATION_TYPE":"U"},{"OBJECT_ID":"2020-035S","CENTER_NAME":"EARTH","MEAN_MOTION_DOT":"0.00018491","BSTAR":"0.00125650000000","MEAN_ELEMENT_THEORY":"SGP4","SITE":"AFETR","ELEMENT_SET_NO":"999","ARG_OF_PERICENTER":"112.4489","MEAN_MOTION":"15.06413983","PERIAPSIS":"546.600","NORAD_CAT_ID":"45673","SEMIMAJOR_AXIS":"6925.306","EPOCH":"2023-03-03T18:41:15.733248","GP_ID":"227429782","REF_FRAME":"TEME","EPHEMERIS_TYPE":"0","PERIOD":"95.591","APOAPSIS":"547.741","LAUNCH_DATE":"2020-06-04","MEAN_MOTION_DDOT":"0.0000000000000","CLASSIFICATION_TYPE":"U","TIME_SYSTEM":"UTC","OBJECT_TYPE":"PAYLOAD","ECCENTRICITY":"0.00008240","DECAY_DATE":null,"INCLINATION":"53.0554","TLE_LINE1":"1 45673U 20035S   23062.77865432  .00018491  00000-0  12565-2 0  9994","COUNTRY_CODE":"US","RA_OF_ASC_NODE":"333.2894","MEAN_ANOMALY":"247.6588","REV_AT_EPOCH":"15265","RCS_SIZE":"LARGE","TLE_LINE2":"2 45673  53.0554 333.2894 0000824 112.4489 247.6588 15.06413983152653","OBJECT_NAME":"STARLINK-1456","FILE":"3850400"}];
